0 COSMOS 1275 DEB
1 12728U 81053BV  13282.38003853  .00000719  00000-0  73932-3 0  8985
2 12728 082.8104 342.4240 0057625 148.8578 272.7841 13.74184338601347
0 COSMOS 1275 DEB
1 12728U 81053BV  13286.68814194  .00000618  00000-0  63268-3 0  9003
2 12728 082.8099 339.1774 0057396 137.2998 344.8516 13.74187253601932
0 COSMOS 1275 DEB
1 12728U 81053BV  13289.14975771  .00000583  00000-0  59604-3 0  9017
2 12728 082.8094 337.3222 0057268 130.6236 282.4941 13.74190784602275
0 COSMOS 1275 DEB
1 12728U 81053BV  13291.48253510  .00000466  00000-0  47312-3 0  9021
2 12728 082.8092 335.5638 0057128 124.2874 302.8028 13.74192028602597
0 COSMOS 1275 DEB
1 12728U 81053BV  13293.60396238  .00000411  00000-0  41513-3 0  9030
2 12728 082.8092 333.9646 0056986 118.4990 357.5948 13.74192988602888
0 COSMOS 1275 DEB
1 12728U 81053BV  13296.06172663  .00000359  00000-0  36031-3 0  9048
2 12728 082.8092 332.1119 0056849 111.7781 276.2857 13.74194363603220
